[{"OBJECT_NAME":"PROPCUBE 3","OBJECT_ID":"2015-058K","EPOCH":"2026-03-09T17:34:06.780288","MEAN_MOTION":14.93528956,"ECCENTRICITY":0.01235273,"INCLINATION":64.7688,"RA_OF_ASC_NODE":203.0958,"ARG_OF_PERICENTER":99.6156,"MEAN_ANOMALY":261.8939,"EPHEMERIS_TYPE":0,"CLASSIFICATION_TYPE":"U","NORAD_CAT_ID":40973,"ELEMENT_SET_NO":999,"REV_AT_EPOCH":9994,"BSTAR":0.00046586011,"MEAN_MOTION_DOT":5.546e-5,"MEAN_MOTION_DDOT":0},{"OBJECT_NAME":"STARLINK-3800","OBJECT_ID":"2022-045BA","EPOCH":"2026-03-09T14:36:47.659680","MEAN_MOTION":15.08838707,"ECCENTRICITY":0.0001345,"INCLINATION":53.2173,"RA_OF_ASC_NODE":189.4867,"ARG_OF_PERICENTER":92.8265,"MEAN_ANOMALY":267.2881,"EPHEMERIS_TYPE":0,"CLASSIFICATION_TYPE":"U","NORAD_CAT_ID":52379,"ELEMENT_SET_NO":999,"REV_AT_EPOCH":21591,"BSTAR":1.4325e-5,"MEAN_MOTION_DOT":-6.0e-7,"MEAN_MOTION_DDOT":0}]
